NORAD_CAT_ID,OBJECT_NAME,OBJECT_TYPE,EPOCH,MEAN_MOTION,ECCENTRICITY,INCLINATION,RA_OF_ASC_NODE,ARG_OF_PERICENTER,MEAN_ANOMALY,BSTAR,MEAN_MOTION_DOT,MEAN_MOTION_DDOT,TLE_LINE0,TLE_LINE1,TLE_LINE2,SEMIMAJOR_AXIS,PERIOD,APOGEE,PERIGEE,DECAYED
54000.0,STARLINK-5088,PAYLOAD,2024-04-04 02:48:08,15.08821761,0.0001378,53.2157,127.2598,106.099,254.0153,0.00017641,2.519e-05,0.0,0 STARLINK-5088,1 54000U 22125AN  24095.11676447  .00002519  00000-0  17641-3 0  9996,2 54000  53.2157 127.2598 0001378 106.0990 254.0153 15.08821761 83305,6917.936,95.439,540.754,538.848,0.0
54000.0,STARLINK-5088,PAYLOAD,2024-04-04 09:09:41,15.08825835,0.0001401,53.2157,126.0706,106.487,253.6276,0.00021359,3.112e-05,0.0,0 STARLINK-5088,1 54000U 22125AN  24095.38172543  .00003112  00000-0  21359-3 0  9994,2 54000  53.2157 126.0706 0001401 106.4870 253.6276 15.08825835 83274,6917.924,95.438,540.758,538.819,0.0
54000.0,STARLINK-5088,PAYLOAD,2024-04-04 18:42:00,15.08827068,0.0001403,53.2157,124.2864,105.815,254.2997,0.00020689,3.005e-05,0.0,0 STARLINK-5088,1 54000U 22125AN  24095.77916905  .00003005  00000-0  20689-3 0  9991,2 54000  53.2157 124.2864 0001403 105.8150 254.2997 15.08827068 83339,6917.92,95.438,540.756,538.814,0.0
54000.0,STARLINK-5088,PAYLOAD,2024-04-05 10:35:52,15.08831396,0.0001455,53.2165,121.3129,104.4535,255.6619,0.00016655,2.363e-05,0.0,0 STARLINK-5088,1 54000U 22125AN  24096.44157444  .00002363  00000-0  16655-3 0  9995,2 54000  53.2165 121.3129 0001455 104.4535 255.6619 15.08831396 83503,6917.907,95.438,540.778,538.765,0.0
54000.0,STARLINK-5088,PAYLOAD,2024-04-05 18:32:47,15.0883595,0.0001444,53.2169,119.8258,101.1356,258.9799,0.00016606,2.356e-05,0.0,0 STARLINK-5088,1 54000U 22125AN  24096.77277305  .00002356  00000-0  16606-3 0  9998,2 54000  53.2169 119.8258 0001444 101.1356 258.9799 15.08835950 83487,6917.893,95.438,540.757,538.759,0.0
54000.0,STARLINK-5088,PAYLOAD,2024-04-06 10:26:38,15.08842117,0.0001465,53.2156,116.8521,94.9753,265.1407,0.00013527,1.866e-05,0.0,0 STARLINK-5088,1 54000U 22125AN  24097.43517042  .00001866  00000-0  13527-3 0  9991,2 54000  53.2156 116.8521 0001465  94.9753 265.1407 15.08842117 83654,6917.874,95.437,540.752,538.725,0.0
54000.0,STARLINK-5088,PAYLOAD,2024-04-07 08:42:02,15.08840455,0.0001449,53.2153,112.6877,91.7763,268.3395,0.00010025,1.308e-05,0.0,0 STARLINK-5088,1 54000U 22125AN  24098.36253317  .00001308  00000-0  10025-3 0  9997,2 54000  53.2153 112.6877 0001449  91.7763 268.3395 15.08840455 83796,6917.879,95.438,540.746,538.742,0.0
54000.0,STARLINK-5088,PAYLOAD,2024-04-07 18:14:21,15.08842755,0.0001447,53.2154,110.9033,91.4099,268.7059,0.0001176,1.584e-05,0.0,0 STARLINK-5088,1 54000U 22125AN  24098.75997235  .00001584  00000-0  11760-3 0  9997,2 54000  53.2154 110.9033 0001447  91.4099 268.7059 15.08842755 83784,6917.872,95.437,540.738,538.736,0.0
54000.0,STARLINK-5088,PAYLOAD,2024-04-08 10:08:12,15.08848077,0.000143,53.2151,107.9292,92.6625,267.4531,0.00017019,2.422e-05,0.0,0 STARLINK-5088,1 54000U 22125AN  24099.42236859  .00002422  00000-0  17019-3 0  9995,2 54000  53.2151 107.9292 0001430  92.6625 267.4531 15.08848077 83957,6917.856,95.437,540.71,538.731,0.0
54000.0,STARLINK-5088,PAYLOAD,2024-04-08 18:05:08,15.08841537,0.0001359,53.2144,106.4419,93.1514,266.9634,9.1528e-05,1.169e-05,0.0,0 STARLINK-5088,1 54000U 22125AN  24099.75357173  .00001169  00000-0  91528-4 0  9999,2 54000  53.2144 106.4419 0001359  93.1514 266.9634 15.08841537 84006,6917.876,95.437,540.681,538.801,0.0
54000.0,STARLINK-5088,PAYLOAD,2024-04-09 00:26:41,15.08840652,0.000135,53.2157,105.2529,93.3995,266.7152,6.7977e-05,7.94e-06,0.0,0 STARLINK-5088,1 54000U 22125AN  24100.01853285  .00000794  00000-0  67977-4 0  9990,2 54000  53.2157 105.2529 0001350  93.3995 266.7152 15.08840652 83970,6917.878,95.438,540.677,538.809,0.0
54000.0,STARLINK-5088,PAYLOAD,2024-04-09 06:48:13,15.08839465,0.000138,53.2158,104.0626,94.8616,265.2534,4.2222e-05,3.84e-06,0.0,0 STARLINK-5088,1 54000U 22125AN  24100.28349342  .00000384  00000-0  42222-4 0  9994,2 54000  53.2158 104.0626 0001380  94.8616 265.2534 15.08839465 84019,6917.882,95.438,540.702,538.792,0.0
54000.0,STARLINK-5088,PAYLOAD,2024-04-10 05:03:37,15.08844033,0.0001341,53.2162,99.9,93.5286,266.5859,4.439e-05,4.19e-06,0.0,0 STARLINK-5088,1 54000U 22125AN  24101.21084935  .00000419  00000-0  44390-4 0  9999,2 54000  53.2162  99.9000 0001341  93.5286 266.5859 15.08844033 84222,6917.868,95.437,540.661,538.805,0.0
54000.0,STARLINK-5088,PAYLOAD,2024-04-10 06:39:00,15.08845661,0.0001321,53.2162,99.603,92.3302,267.7841,5.8837e-05,6.49e-06,0.0,0 STARLINK-5088,1 54000U 22125AN  24101.27708770  .00000649  00000-0  58837-4 0  9991,2 54000  53.2162  99.6030 0001321  92.3302 267.7841 15.08845661 84161,6917.863,95.437,540.642,538.814,0.0
54000.0,STARLINK-5088,PAYLOAD,2024-04-11 04:54:25,15.08833352,0.0001302,53.2166,95.4402,91.376,268.7381,3.5344e-05,2.75e-06,0.0,0 STARLINK-5088,1 54000U 22125AN  24102.20445751  .00000275  00000-0  35344-4 0  9995,2 54000  53.2166  95.4402 0001302  91.3760 268.7381 15.08833352 84375,6917.901,95.438,540.666,538.865,0.0
54000.0,STARLINK-5088,PAYLOAD,2024-04-11 06:29:48,15.0883525,0.0001299,53.2166,95.1427,91.4854,268.6287,5.0356e-05,5.14e-06,0.0,0 STARLINK-5088,1 54000U 22125AN  24102.27069599  .00000514  00000-0  50356-4 0  9990,2 54000  53.2166  95.1427 0001299  91.4854 268.6287 15.08835250 84316,6917.895,95.438,540.659,538.861,0.0
54000.0,STARLINK-5088,PAYLOAD,2024-04-11 16:02:06,15.0883819,0.0001308,53.2168,93.3586,91.1088,269.0054,4.5421e-05,4.35e-06,0.0,0 STARLINK-5088,1 54000U 22125AN  24102.66813523  .00000435  00000-0  45421-4 0  9996,2 54000  53.2168  93.3586 0001308  91.1088 269.0054 15.08838190 84370,6917.886,95.438,540.656,538.846,0.0
54000.0,STARLINK-5088,PAYLOAD,2024-04-12 07:55:58,15.08839337,0.0001393,53.2176,90.3858,93.2449,266.8702,3.43e-05,2.58e-06,0.0,0 STARLINK-5088,1 54000U 22125AN  24103.33053600  .00000258  00000-0  34300-4 0  9990,2 54000  53.2176  90.3858 0001393  93.2449 266.8702 15.08839337 84544,6917.882,95.438,540.711,538.784,0.0
54000.0,STARLINK-5088,PAYLOAD,2024-04-13 07:46:45,15.08838433,0.0001401,53.2174,85.9264,101.6334,258.4816,7.9122e-05,9.71e-06,0.0,0 STARLINK-5088,1 54000U 22125AN  24104.32413822  .00000971  00000-0  79122-4 0  9999,2 54000  53.2174  85.9264 0001401 101.6334 258.4816 15.08838433 84628,6917.885,95.438,540.719,538.781,0.0
54000.0,STARLINK-5088,PAYLOAD,2024-04-14 04:26:46,15.08840647,0.0001445,53.2176,82.0563,94.1812,265.9346,7.0654e-05,8.37e-06,0.0,0 STARLINK-5088,1 54000U 22125AN  24105.18525895  .00000837  00000-0  70654-4 0  9990,2 54000  53.2176  82.0563 0001445  94.1812 265.9346 15.08840647 84828,6917.878,95.438,540.743,538.744,0.0
54000.0,STARLINK-5088,PAYLOAD,2024-04-14 09:12:55,15.08843559,0.0001426,53.2177,81.1661,94.6199,265.4956,9.1709e-05,1.172e-05,0.0,0 STARLINK-5088,1 54000U 22125AN  24105.38397665  .00001172  00000-0  91709-4 0  9991,2 54000  53.2177  81.1661 0001426  94.6199 265.4956 15.08843559 84782,6917.87,95.437,540.721,538.748,0.0
54000.0,STARLINK-5088,PAYLOAD,2024-04-15 07:28:19,15.08849265,0.0001537,53.2182,77.0018,104.9855,255.1307,0.00011023,1.467e-05,0.0,0 STARLINK-5088,1 54000U 22125AN  24106.31133319  .00001467  00000-0  11023-3 0  9996,2 54000  53.2182  77.0018 0001537 104.9855 255.1307 15.08849265 84994,6917.852,95.437,540.78,538.654,0.0
54000.0,STARLINK-5088,PAYLOAD,2024-04-15 21:46:48,15.08841726,0.0001592,53.2181,74.3259,87.158,272.9594,1.8238e-05,2e-08,0.0,0 STARLINK-5088,1 54000U 22125AN  24106.90750180  .00000002  00000-0  18238-4 0  9992,2 54000  53.2181  74.3259 0001592  87.1580 272.9594 15.08841726 85011,6917.875,95.437,540.841,538.639,0.0
54000.0,STARLINK-5088,PAYLOAD,2024-04-16 04:08:20,15.0884593,0.00015,53.2176,73.1368,90.6529,269.4635,4.9429e-05,4.99e-06,0.0,0 STARLINK-5088,1 54000U 22125AN  24107.17245762  .00000499  00000-0  49429-4 0  9993,2 54000  53.2176  73.1368 0001500  90.6529 269.4635 15.08845930 85124,6917.862,95.437,540.765,538.69,0.0
54000.0,STARLINK-5088,PAYLOAD,2024-04-16 07:19:06,15.08849862,0.000154,53.2181,72.5396,95.7629,264.3539,8.6547e-05,1.09e-05,0.0,0 STARLINK-5088,1 54000U 22125AN  24107.30493298  .00001090  00000-0  86547-4 0  9997,2 54000  53.2181  72.5396 0001540  95.7629 264.3539 15.08849862 85074,6917.85,95.437,540.781,538.65,0.0
54000.0,STARLINK-5088,PAYLOAD,2024-04-16 15:16:01,15.08848831,0.0001387,53.2169,71.0542,98.9403,261.1747,7.4592e-05,9e-06,0.0,0 STARLINK-5088,1 54000U 22125AN  24107.63613351  .00000900  00000-0  74592-4 0  9993,2 54000  53.2169  71.0542 0001387  98.9403 261.1747 15.08848831 85128,6917.853,95.437,540.678,538.759,0.0
54000.0,STARLINK-5088,PAYLOAD,2024-04-17 07:09:52,15.08863829,0.000159,53.2176,68.0785,98.2416,261.8756,0.00031323,4.704e-05,0.0,0 STARLINK-5088,1 54000U 22125AN  24108.29852536  .00004704  00000-0  31323-3 0  9996,2 54000  53.2176  68.0785 0001590  98.2416 261.8756 15.08863829 85293,6917.808,95.436,540.772,538.573,0.0
54000.0,STARLINK-5088,PAYLOAD,2024-04-18 03:49:54,15.08829717,0.000129,53.2161,64.2133,112.1769,247.936,-0.00012617,-2.295e-05,0.0,0 STARLINK-5088,1 54000U 22125AN  24109.15966416 -.00002295  00000-0 -12617-3 0  9995,2 54000  53.2161  64.2133 0001290 112.1769 247.9360 15.08829717 85425,6917.912,95.438,540.669,538.884,0.0
54000.0,STARLINK-5088,PAYLOAD,2024-04-18 07:00:41,15.08829444,0.0001321,53.2161,63.6179,124.5126,235.5991,-0.00015974,-2.828e-05,0.0,0 STARLINK-5088,1 54000U 22125AN  24109.29214196 -.00002828  00000-0 -15974-3 0  9992,2 54000  53.2161  63.6179 0001321 124.5126 235.5991 15.08829444 85371,6917.913,95.438,540.692,538.864,0.0
54000.0,STARLINK-5088,PAYLOAD,2024-04-19 03:40:42,15.0883922,0.0001425,53.2179,59.7526,104.0585,256.0565,0.00014123,1.96e-05,0.0,0 STARLINK-5088,1 54000U 22125AN  24110.15326612  .00001960  00000-0  14123-3 0  9995,2 54000  53.2179  59.7526 0001425 104.0585 256.0565 15.08839220 85579,6917.883,95.438,540.734,538.762,0.0
